SAUDISAT 1C (SO-50)     
1 27607U 02058C   26087.23158542  .00001607  00000+0  20667-3 0  9997
2 27607  64.5539  19.4240 0075445 277.2270  82.0264 14.82854107252458
SAUDISAT 2              
1 28371U 04025F   26087.59242311  .00000330  00000+0  84863-4 0  9990
2 28371  98.5508  85.4980 0024647 181.5665 178.5459 14.56631004154017
SAUDISAT 3              
1 31118U 07012B   26087.60680378  .00000375  00000+0  68771-4 0  9992
2 31118  98.1377  37.9942 0015797 121.0683 239.2076 14.71369945 15896
PISAT                   
1 41784U 16059B   26087.55939724  .00001195  00000+0  21124-3 0  9990
2 41784  97.8193  91.4845 0030571 102.5365 257.9263 14.68820067507909
FLYING LAPTOP           
1 42831U 17042G   26087.58256046  .00003761  00000+0  30073-3 0  9993
2 42831  97.4331 246.4243 0020031  37.1156 323.1449 15.00639476474362
SALSAT                  
1 46495U 20068K   26087.52869768  .00010340  00000+0  37480-3 0  9990
2 46495  97.8863  85.7603 0008674 217.3238 142.7398 15.28540300303032
