[{"OBJECT_NAME":"SAUDISAT 1C (SO-50)","OBJECT_ID":"2002-058C","EPOCH":"2026-03-28T05:33:28.980288","MEAN_MOTION":14.82854107,"ECCENTRICITY":0.0075445,"INCLINATION":64.5539,"RA_OF_ASC_NODE":19.424,"ARG_OF_PERICENTER":277.227,"MEAN_ANOMALY":82.0264,"EPHEMERIS_TYPE":0,"CLASSIFICATION_TYPE":"U","NORAD_CAT_ID":27607,"ELEMENT_SET_NO":999,"REV_AT_EPOCH":25245,"BSTAR":0.00020667,"MEAN_MOTION_DOT":1.607e-5,"MEAN_MOTION_DDOT":0},{"OBJECT_NAME":"SAUDISAT 2","OBJECT_ID":"2004-025F","EPOCH":"2026-03-28T14:13:05.356704","MEAN_MOTION":14.56631004,"ECCENTRICITY":0.00246473,"INCLINATION":98.5508,"RA_OF_ASC_NODE":85.498,"ARG_OF_PERICENTER":181.5665,"MEAN_ANOMALY":178.5459,"EPHEMERIS_TYPE":0,"CLASSIFICATION_TYPE":"U","NORAD_CAT_ID":28371,"ELEMENT_SET_NO":999,"REV_AT_EPOCH":15401,"BSTAR":8.4862627e-5,"MEAN_MOTION_DOT":3.3e-6,"MEAN_MOTION_DDOT":0},{"OBJECT_NAME":"SAUDISAT 3","OBJECT_ID":"2007-012B","EPOCH":"2026-03-28T14:33:47.846592","MEAN_MOTION":14.71369945,"ECCENTRICITY":0.00157971,"INCLINATION":98.1377,"RA_OF_ASC_NODE":37.9942,"ARG_OF_PERICENTER":121.0683,"MEAN_ANOMALY":239.2076,"EPHEMERIS_TYPE":0,"CLASSIFICATION_TYPE":"U","NORAD_CAT_ID":31118,"ELEMENT_SET_NO":999,"REV_AT_EPOCH":1589,"BSTAR":6.8770605e-5,"MEAN_MOTION_DOT":3.75e-6,"MEAN_MOTION_DDOT":0},{"OBJECT_NAME":"PISAT","OBJECT_ID":"2016-059B","EPOCH":"2026-03-28T13:25:31.921536","MEAN_MOTION":14.68820067,"ECCENTRICITY":0.00305711,"INCLINATION":97.8193,"RA_OF_ASC_NODE":91.4845,"ARG_OF_PERICENTER":102.5365,"MEAN_ANOMALY":257.9263,"EPHEMERIS_TYPE":0,"CLASSIFICATION_TYPE":"U","NORAD_CAT_ID":41784,"ELEMENT_SET_NO":999,"REV_AT_EPOCH":50790,"BSTAR":0.00021124292,"MEAN_MOTION_DOT":1.195e-5,"MEAN_MOTION_DDOT":0},{"OBJECT_NAME":"FLYING LAPTOP","OBJECT_ID":"2017-042G","EPOCH":"2026-03-28T13:58:53.223744","MEAN_MOTION":15.00639476,"ECCENTRICITY":0.00200313,"INCLINATION":97.4331,"RA_OF_ASC_NODE":246.4243,"ARG_OF_PERICENTER":37.1156,"MEAN_ANOMALY":323.1449,"EPHEMERIS_TYPE":0,"CLASSIFICATION_TYPE":"U","NORAD_CAT_ID":42831,"ELEMENT_SET_NO":999,"REV_AT_EPOCH":47436,"BSTAR":0.0003007306,"MEAN_MOTION_DOT":3.761e-5,"MEAN_MOTION_DDOT":0},{"OBJECT_NAME":"SALSAT","OBJECT_ID":"2020-068K","EPOCH":"2026-03-28T12:41:19.479552","MEAN_MOTION":15.285403,"ECCENTRICITY":0.00086745,"INCLINATION":97.8863,"RA_OF_ASC_NODE":85.7603,"ARG_OF_PERICENTER":217.3238,"MEAN_ANOMALY":142.7398,"EPHEMERIS_TYPE":0,"CLASSIFICATION_TYPE":"U","NORAD_CAT_ID":46495,"ELEMENT_SET_NO":999,"REV_AT_EPOCH":30303,"BSTAR":0.00037480321,"MEAN_MOTION_DOT":0.0001034,"MEAN_MOTION_DDOT":0}]
